NORAD_CAT_ID,OBJECT_NAME,OBJECT_TYPE,EPOCH,MEAN_MOTION,ECCENTRICITY,INCLINATION,RA_OF_ASC_NODE,ARG_OF_PERICENTER,MEAN_ANOMALY,BSTAR,MEAN_MOTION_DOT,MEAN_MOTION_DDOT,TLE_LINE0,TLE_LINE1,TLE_LINE2,SEMIMAJOR_AXIS,PERIOD,APOGEE,PERIGEE,DECAYED
55677.0,STARLINK-5324,PAYLOAD,2024-02-08 22:15:30,14.9833092,0.0002825,69.999,260.0451,268.5068,91.5768,-2.5059e-05,-3.92e-06,0.0,0 STARLINK-5324,1 55677U 23021BB  24039.92743068 -.00000392  00000-0 -25059-4 0  9996,2 55677  69.9990 260.0451 0002825 268.5068  91.5768 14.98330920 55975,6950.19,96.107,574.018,570.092,0.0
55677.0,STARLINK-5324,PAYLOAD,2024-02-09 14:16:50,14.98328265,0.000293,69.9988,258.3615,270.1623,89.92,7.5597e-05,8.09e-06,0.0,0 STARLINK-5324,1 55677U 23021BB  24040.59502897  .00000809  00000-0  75597-4 0  9997,2 55677  69.9988 258.3615 0002930 270.1623  89.9200 14.98328265 56070,6950.198,96.107,574.1,570.027,0.0
55677.0,STARLINK-5324,PAYLOAD,2024-02-09 19:05:14,14.98329243,0.0002932,69.9988,257.8566,269.5219,90.5604,8.0459e-05,8.67e-06,0.0,0 STARLINK-5324,1 55677U 23021BB  24040.79530820  .00000867  00000-0  80459-4 0  9993,2 55677  69.9988 257.8566 0002932 269.5219  90.5604 14.98329243 55807,6950.195,96.107,574.098,570.022,0.0
55677.0,STARLINK-5324,PAYLOAD,2024-02-09 23:53:38,14.98330924,0.0002949,69.9987,257.3514,269.8205,90.2616,7.6171e-05,8.16e-06,0.0,0 STARLINK-5324,1 55677U 23021BB  24040.99558714  .00000816  00000-0  76171-4 0  9997,2 55677  69.9987 257.3514 0002949 269.8205  90.2616 14.98330924 56135,6950.19,96.107,574.105,570.005,0.0
55677.0,STARLINK-5324,PAYLOAD,2024-02-10 19:07:16,14.98325928,0.0002888,69.9989,255.332,268.7253,91.3575,-3.0171e-05,-4.53e-06,0.0,0 STARLINK-5324,1 55677U 23021BB  24041.79671385 -.00000453  00000-0 -30171-4 0  9995,2 55677  69.9989 255.3320 0002888 268.7253  91.3575 14.98325928 55956,6950.205,96.107,574.078,570.063,0.0
55677.0,STARLINK-5324,PAYLOAD,2024-02-10 22:19:32,14.98325123,0.000289,69.9989,254.9948,266.2482,93.8347,-5.2206e-05,-7.16e-06,0.0,0 STARLINK-5324,1 55677U 23021BB  24041.93023513 -.00000716  00000-0 -52206-4 0  9990,2 55677  69.9989 254.9948 0002890 266.2482  93.8347 14.98325123 56274,6950.208,96.107,574.082,570.064,0.0
55677.0,STARLINK-5324,PAYLOAD,2024-02-11 14:20:52,14.98333786,0.0002979,69.9986,253.312,267.257,92.8248,-7.1721e-06,-1.79e-06,0.0,0 STARLINK-5324,1 55677U 23021BB  24042.59782863 -.00000179  00000-0 -71721-5 0  9990,2 55677  69.9986 253.3120 0002979 267.2570  92.8248 14.98333786 56377,6950.181,96.107,574.117,569.976,0.0
55677.0,STARLINK-5324,PAYLOAD,2024-02-11 20:45:24,14.98333934,0.0002975,69.9988,252.6386,267.4589,92.623,-1.7265e-06,-1.14e-06,0.0,0 STARLINK-5324,1 55677U 23021BB  24042.86486774 -.00000114  00000-0 -17265-5 0  9994,2 55677  69.9988 252.6386 0002975 267.4589  92.6230 14.98333934 56119,6950.181,96.107,574.113,569.978,0.0
55677.0,STARLINK-5324,PAYLOAD,2024-02-11 22:21:32,14.9833454,0.0002967,69.9988,252.4703,267.4217,92.6602,5.8616e-06,-2.3e-07,0.0,0 STARLINK-5324,1 55677U 23021BB  24042.93162696 -.00000023  00000-0  58616-5 0  9999,2 55677  69.9988 252.4703 0002967 267.4217  92.6602 14.98334540 56420,6950.179,96.107,574.106,569.982,0.0
55677.0,STARLINK-5324,PAYLOAD,2024-02-12 14:22:53,14.98329552,0.0002991,69.9988,250.7871,265.5754,94.5063,5.8287e-05,6.03e-06,0.0,0 STARLINK-5324,1 55677U 23021BB  24043.59922740  .00000603  00000-0  58287-4 0  9992,2 55677  69.9988 250.7871 0002991 265.5754  94.5063 14.98329552 56529,6950.194,96.107,574.138,569.98,0.0
55677.0,STARLINK-5324,PAYLOAD,2024-02-12 22:23:33,14.98330327,0.000298,69.999,249.9454,266.2435,93.8383,5.9824e-05,6.21e-06,0.0,0 STARLINK-5324,1 55677U 23021BB  24043.93302668  .00000621  00000-0  59824-4 0  9999,2 55677  69.9990 249.9454 0002980 266.2435  93.8383 14.98330327 56575,6950.192,96.107,574.128,569.986,0.0
55677.0,STARLINK-5324,PAYLOAD,2024-02-12 23:59:41,14.98330759,0.0002984,69.9989,249.7766,267.0428,93.039,6.307e-05,6.6e-06,0.0,0 STARLINK-5324,1 55677U 23021BB  24043.99978629  .00000660  00000-0  63070-4 0  9992,2 55677  69.9989 249.7766 0002984 267.0428  93.0390 14.98330759 56289,6950.191,96.107,574.129,569.982,0.0
55677.0,STARLINK-5324,PAYLOAD,2024-02-13 14:24:54,14.98330138,0.0002837,69.9993,248.2619,267.0315,93.0519,-4.104e-05,-5.83e-06,0.0,0 STARLINK-5324,1 55677U 23021BB  24044.60062972 -.00000583  00000-0 -41040-4 0  9995,2 55677  69.9993 248.2619 0002837 267.0315  93.0519 14.98330138 56674,6950.192,96.107,574.029,570.086,0.0
55677.0,STARLINK-5324,PAYLOAD,2024-02-13 22:25:34,14.98331509,0.0002805,69.9993,247.4206,266.0751,94.0087,-1.9131e-05,-3.21e-06,0.0,0 STARLINK-5324,1 55677U 23021BB  24044.93442800 -.00000321  00000-0 -19131-4 0  9999,2 55677  69.9993 247.4206 0002805 266.0751  94.0087 14.98331509 56725,6950.188,96.107,574.003,570.104,0.0
55677.0,STARLINK-5324,PAYLOAD,2024-02-14 06:26:14,14.98338612,0.0002849,69.9993,246.579,268.2444,91.8389,5.365e-05,5.47e-06,0.0,0 STARLINK-5324,1 55677U 23021BB  24045.26822042  .00000547  00000-0  53650-4 0  9998,2 55677  69.9993 246.5790 0002849 268.2444  91.8389 14.98338612 56478,6950.166,96.106,574.011,570.051,0.0
55677.0,STARLINK-5324,PAYLOAD,2024-02-14 14:26:54,14.98331482,0.000259,70.0002,245.7395,256.3265,103.7606,8.0431e-06,3e-08,0.0,0 STARLINK-5324,1 55677U 23021BB  24045.60202513  .00000003  00000-0  80431-5 0  9996,2 55677  70.0002 245.7395 0002590 256.3265 103.7606 14.98331482 56828,6950.188,96.107,573.853,570.253,0.0
55677.0,STARLINK-5324,PAYLOAD,2024-02-14 19:15:19,14.98327489,0.0002728,69.9997,245.2332,262.9523,97.1326,-4.5886e-05,-6.4e-06,0.0,0 STARLINK-5324,1 55677U 23021BB  24045.80230928 -.00000640  00000-0 -45886-4 0  9992,2 55677  69.9997 245.2332 0002728 262.9523  97.1326 14.98327489 56554,6950.201,96.107,573.962,570.17,0.0
55677.0,STARLINK-5324,PAYLOAD,2024-02-14 22:27:35,14.98326868,0.0002654,69.9997,244.8961,265.8268,94.2588,-3.756e-05,-5.41e-06,0.0,0 STARLINK-5324,1 55677U 23021BB  24045.93582980 -.00000541  00000-0 -37560-4 0  9994,2 55677  69.9997 244.8961 0002654 265.8268  94.2588 14.98326868 56876,6950.203,96.107,573.912,570.223,0.0
55677.0,STARLINK-5324,PAYLOAD,2024-02-15 14:28:56,14.98327266,0.0002876,69.9995,243.2128,271.1066,88.9764,6.737e-05,7.11e-06,0.0,0 STARLINK-5324,1 55677U 23021BB  24046.60342668  .00000711  00000-0  67370-4 0  9995,2 55677  69.9995 243.2128 0002876 271.1066  88.9764 14.98327266 56974,6950.201,96.107,574.065,570.067,0.0
55677.0,STARLINK-5324,PAYLOAD,2024-02-15 19:17:20,14.98326663,0.0002861,69.9995,242.7077,269.7877,90.2954,5.0649e-05,5.11e-06,0.0,0 STARLINK-5324,1 55677U 23021BB  24046.80370782  .00000511  00000-0  50649-4 0  9994,2 55677  69.9995 242.7077 0002861 269.7877  90.2954 14.98326663 56706,6950.203,96.107,574.057,570.08,0.0
55677.0,STARLINK-5324,PAYLOAD,2024-02-15 22:29:36,14.98334129,0.0002944,69.9994,242.3711,270.056,90.0261,-8.15e-05,-1.065e-05,0.0,0 STARLINK-5324,1 55677U 23021BB  24046.93722647 -.00001065  00000-0 -81500-4 0  9996,2 55677  69.9994 242.3711 0002944 270.0560  90.0261 14.98334129 57023,6950.18,96.107,574.091,569.999,0.0
55677.0,STARLINK-5324,PAYLOAD,2024-02-16 14:30:56,14.98329521,0.0002901,69.9987,240.6863,269.0718,91.0109,6.044e-05,6.28e-06,0.0,0 STARLINK-5324,1 55677U 23021BB  24047.60482445  .00000628  00000-0  60440-4 0  9992,2 55677  69.9987 240.6863 0002901 269.0718  91.0109 14.98329521 57123,6950.194,96.107,574.076,570.043,0.0
55677.0,STARLINK-5324,PAYLOAD,2024-02-16 19:19:20,14.98331326,0.0002913,69.9988,240.1812,268.8493,91.2332,4.5595e-05,4.51e-06,0.0,0 STARLINK-5324,1 55677U 23021BB  24047.80510363  .00000451  00000-0  45595-4 0  9993,2 55677  69.9988 240.1812 0002913 268.8493  91.2332 14.98331326 56858,6950.189,96.107,574.078,570.029,0.0
55677.0,STARLINK-5324,PAYLOAD,2024-02-16 22:31:36,14.98332326,0.0002908,69.9988,239.8445,268.8346,91.248,5.4478e-05,5.57e-06,0.0,0 STARLINK-5324,1 55677U 23021BB  24047.93862255  .00000557  00000-0  54478-4 0  9994,2 55677  69.9988 239.8445 0002908 268.8346  91.2480 14.98332326 57177,6950.186,96.107,574.072,570.03,0.0
55677.0,STARLINK-5324,PAYLOAD,2024-02-17 14:32:57,14.98329967,0.0002885,69.9988,238.161,268.905,91.1779,1.5963e-05,9.7e-07,0.0,0 STARLINK-5324,1 55677U 23021BB  24048.60622461  .00000097  00000-0  15963-4 0  9997,2 55677  69.9988 238.1610 0002885 268.9050  91.1779 14.98329967 57278,6950.193,96.107,574.063,570.053,0.0
55677.0,STARLINK-5324,PAYLOAD,2024-02-17 19:21:21,14.9833051,0.0002911,69.9988,237.6565,269.9817,90.1009,7.1665e-06,-7e-08,0.0,0 STARLINK-5324,1 55677U 23021BB  24048.80650450 -.00000007  00000-0  71665-5 0  9992,2 55677  69.9988 237.6565 0002911 269.9817  90.1009 14.98330510 57005,6950.191,96.107,574.08,570.033,0.0
55677.0,STARLINK-5324,PAYLOAD,2024-02-17 22:33:38,14.98330387,0.0002918,69.9988,237.3198,270.1668,89.9157,4.8361e-06,-3.5e-07,0.0,0 STARLINK-5324,1 55677U 23021BB  24048.94002458 -.00000035  00000-0  48361-5 0  9994,2 55677  69.9988 237.3198 0002918 270.1668  89.9157 14.98330387 57326,6950.192,96.107,574.085,570.029,0.0
55677.0,STARLINK-5324,PAYLOAD,2024-02-18 14:34:58,14.98333366,0.0002879,69.999,235.6365,270.712,89.3709,2.6391e-06,-6.2e-07,0.0,0 STARLINK-5324,1 55677U 23021BB  24049.60762191 -.00000062  00000-0  26391-5 0  9994,2 55677  69.9990 235.6365 0002879 270.7120  89.3709 14.98333366 57429,6950.182,96.107,574.048,570.047,0.0
55677.0,STARLINK-5324,PAYLOAD,2024-02-18 19:23:22,14.9833429,0.0002901,69.9989,235.1315,271.0259,89.0567,-6.4967e-07,-1.01e-06,0.0,0 STARLINK-5324,1 55677U 23021BB  24049.80790092 -.00000101  00000-0 -64967-6 0  9994,2 55677  69.9989 235.1315 0002901 271.0259  89.0567 14.98334290 57156,6950.18,96.107,574.061,570.028,0.0
55677.0,STARLINK-5324,PAYLOAD,2024-02-18 22:35:38,14.98334462,0.000288,69.9989,234.7947,271.2113,88.8716,3.8315e-06,-4.7e-07,0.0,0 STARLINK-5324,1 55677U 23021BB  24049.94142031 -.00000047  00000-0  38315-5 0  9998,2 55677  69.9989 234.7947 0002880 271.2113  88.8716 14.98334462 57478,6950.179,96.107,574.046,570.042,0.0
